[{"OBJECT_NAME":"DIWATA-2B","OBJECT_ID":"2018-084H","EPOCH":"2026-03-09T23:44:16.821312","MEAN_MOTION":14.99967379,"ECCENTRICITY":0.00117782,"INCLINATION":98.1039,"RA_OF_ASC_NODE":261.0381,"ARG_OF_PERICENTER":125.8755,"MEAN_ANOMALY":234.3563,"EPHEMERIS_TYPE":0,"CLASSIFICATION_TYPE":"U","NORAD_CAT_ID":43678,"ELEMENT_SET_NO":999,"REV_AT_EPOCH":40134,"BSTAR":0.00041230334,"MEAN_MOTION_DOT":5.066e-5,"MEAN_MOTION_DDOT":0},{"OBJECT_NAME":"THOR ABLESTAR DEB","OBJECT_ID":"1961-015FQ","EPOCH":"2026-03-09T11:46:19.148160","MEAN_MOTION":14.93919582,"ECCENTRICITY":0.00285609,"INCLINATION":66.0574,"RA_OF_ASC_NODE":102.4005,"ARG_OF_PERICENTER":353.0053,"MEAN_ANOMALY":7.0669,"EPHEMERIS_TYPE":0,"CLASSIFICATION_TYPE":"U","NORAD_CAT_ID":478,"ELEMENT_SET_NO":999,"REV_AT_EPOCH":36928,"BSTAR":0.0013681176,"MEAN_MOTION_DOT":0.00014607,"MEAN_MOTION_DDOT":0}]
